17P/Holmes,e,19.0083,326.6124,24.6224,3.641146,0.1418558,0.42643832,208.6874,03/01.0/2025,2000,g 10.0,6.0
# From  19, 80
18D/Perrine-Mrkos,e,17.658,158.455,238.227,3.88251,0.128836,0.5896084,23.682,03/01.0/2025,2000,g  9.0,4.0
# From MPEC 2024-YC7
19P/Borrelly,e,29.3174,74.2144,352.0022,3.608263,0.1437993,0.63784264,161.4438,03/01.0/2025,2000,g  4.5,10.0
# From MPEC 2024-YC7
21P/Giacobini-Zinner,e,32.0504,195.3317,172.9342,3.491501,0.1510726,0.71102552,356.3201,03/01.0/2025,2000,g  9.0,6.0
# From MPEC 2024-L77
22P/Kopff,e,4.7900,120.3261,162.9175,3.420182,0.1558225,0.55514529,167.7116,03/01.0/2025,2000,g  3.0,10.4
# From MPC 14747
23P/Brorsen-Metcalf,e,19.4485,311.2434,129.9198,16.93913,0.0141373,0.97260407,0.0000,05/27.8082/2059,2000,g 10.0,6.0
# From MPC110085
24P/Schaumasse,e,11.5062,78.3688,58.4022,4.056452,0.1206381,0.70815471,322.2026,03/01.0/2025,2000,g  6.5,14.0
# From NK 378
25D/Neujmin 2,e,2.8087,279.9737,244.7907,3.221927,0.1704239,0.55047681,347.8304,03/01.0/2025,2000,g 12.5,6.0
# From MPEC 2024-TP3
26P/Grigg-Skjellerup,e,22.4350,211.5344,2.1275,3.014795,0.1882857,0.64057801,81.2794,03/01.0/2025,2000,g 12.0,16.0
# From MPC 78188
27P/Crommelin,e,29.4421,250.7092,195.8398,9.179036,0.0354412,0.91964851,175.7968,03/01.0/2025,2000,g 12.0,8.0
# From MPEC 2025-A40
28P/Neujmin,e,14.2949,346.4048,347.4609,6.981834,0.0534256,0.77277921,77.5447,03/01.0/2025,2000,g  8.5,6.0
# From MPEC 2025-DP4
29P/Schwassmann-Wachmann,e,9.3561,312.4045,52.1967,6.056403,0.0661275,0.04343538,140.7156,03/01.0/2025,2000,g  4.0,4.0
# From MPEC 2025-DP4
30P/Reinmuth,e,8.0532,117.2343,9.5018,3.734823,0.1365523,0.51436883,26.7355,03/01.0/2025,2000,g  9.5,6.0
# From MPEC 2025-A40
31P/Schwassmann-Wachmann,e,4.5498,114.1140,17.8774,4.231527,0.1132292,0.19332934,233.8916,03/01.0/2025,2000,g  5.0,8.0
# From MPEC 2025-D44
32P/ComasSola,e,9.9205,54.5312,54.6944,4.553365,0.1014391,0.55529640,31.8859,03/01.0/2025,2000,g  6.5,8.0
# From MPEC 2025-DP4
33P/Daniel,e,22.2942,66.2816,20.2682,4.093244,0.1190153,0.45213512,13.0996,03/01.0/2025,2000,g 10.0,12.0
# From  9, 314
34D/Gale,e,10.5826,57.8662,218.0270,5.016843,0.0877119,0.75797396,312.4345,03/01.0/2025,2000,g  9.0,4.0
# From  15, 452
35P/Herschel-Rigollet,e,64.655,356.264,29.184,28.5377,0.006465,0.9743512,0.000,04/07.0263/2092,2000,g  9.0,4.0
# From MPEC 2023-RF3
36P/Whipple,e,9.9469,181.8313,201.2038,4.140778,0.1169718,0.26828446,202.7017,03/01.0/2025,2000,g  8.5,6.0
# From MPEC 2025-D44
37P/Forbes,e,8.9479,314.5497,330.0599,3.461927,0.1530126,0.53268935,21.5379,03/01.0/2025,2000,g 10.5,4.8
# From MPEC 2024-YC7
38P/Stephan-Oterma,e,18.4162,77.8586,359.5810,11.26149,0.0260802,0.85981525,59.9645,03/01.0/2025,2000,g  3.5,12.0
# From MPEC 2024-AF0
39P/Oterma,e,1.6997,289.4963,113.7127,6.980396,0.0534422,0.17691874,29.4440,03/01.0/2025,2000,g  7.0,6.0
# From MPEC 2025-CE3
40P/Vaisala,e,11.6352,128.9130,52.0077,4.952380,0.0894300,0.63170144,337.1121,03/01.0/2025,2000,g  5.5,12.0
# From MPEC 2023-SQ0
41P/Tuttle-Giacobini-Kresak,e,9.2163,140.9726,62.2211,3.087900,0.1816391,0.65958620,163.4130,03/01.0/2025,2000,g 10.0,16.0
# From MPC 94283
42P/Neujmin,e,3.9882,150.1522,147.1505,4.878544,0.0914679,0.58402944,330.7315,03/01.0/2025,2000,g 13.0,6.0
# From MPEC 2025-DP4
43P/Wolf-Harrington,e,9.3336,243.9961,223.8494,4.331696,0.1093244,0.43610139,342.8524,03/01.0/2025,2000,g  8.0,6.0
# From MPEC 2024-F34
44P/Reinmuth,e,5.8959,286.4217,58.0071,3.687842,0.1391700,0.42677436,145.2566,03/01.0/2025,2000,g  8.3,6.0
# From MPEC 2022-O01
45P/Honda-Mrkos-Pajdusakova,e,4.3242,87.6852,327.9497,3.056749,0.1844227,0.81767191,191.5491,03/01.0/2025,2000,g 13.5,8.0
# From MPEC 2024-F91
46P/Wirtanen,e,11.7498,82.1609,356.3347,3.091741,0.1813007,0.65875382,51.8335,03/01.0/2025,2000,g 14.0,6.0
# From MPEC 2024-PC5
47P/Ashbrook-Jackson,e,13.0380,356.8849,357.9057,4.118128,0.1179381,0.31826857,331.5816,03/01.0/2025,2000,g  1.0,11.2
# From MPEC 2024-UA9
48P/Johnson,e,12.2018,110.0643,216.7762,3.499350,0.1505647,0.42658744,359.7521,03/01.0/2025,2000,g 10.0,6.0
# From MPEC 2025-DP4
49P/Arend-Rigaux,e,19.0588,118.7922,332.9347,3.570122,0.1461099,0.59907658,354.0651,03/01.0/2025,2000,g 11.3,4.4
# From MPEC 2025-DP4
50P/Arend,e,19.0995,355.1465,49.3239,4.087591,0.1192622,0.52978941,34.8634,03/01.0/2025,2000,g  9.5,6.0
# From MPEC 2023-J29
51P/Harrington,e,5.4263,83.6579,269.2419,3.705465,0.1381783,0.54283836,121.8989,03/01.0/2025,2000,g 10.0,8.0
# From NK 3014
51P-A/Harrington,e,5.4262,269.2291,83.6509,3.706714,0.1381085,0.54303074,121.4810,03/01.0/2025,2000,g 10.0,8.0
# From MPEC 2023-J29
51P-D/Harrington,e,5.4268,83.6462,269.2600,3.705818,0.1381586,0.54296836,121.8230,03/01.0/2025,2000,g 16.0,8.0
# From MPEC 2023-XP6
52P/Harrington-Abell,e,10.2367,336.7607,139.6030,3.862153,0.1298553,0.54105491,161.2695,03/01.0/2025,2000,g 13.5,6.0
# From MPEC 2023-TM6
53P/VanBiesbroeck,e,6.6023,148.8524,134.3531,5.438757,0.0777060,0.54954335,251.4812,03/01.0/2025,2000,g  7.7,4.8
# From MPEC 2024-YC7
54P/deVico-Swift-NEAT,e,6.0631,358.7876,2.0194,3.788109,0.1336812,0.42663222,23.7924,03/01.0/2025,2000,g 10.0,6.0
# From MPC 31070
55P/Tempel-Tuttle,e,162.4899,235.4146,172.4853,10.33962,0.0296447,0.90567595,292.6017,03/01.0/2025,2000,g  9.0,4.0
# From MPEC 2023-TM6
56P/Slaughter-Burnham,e,8.1549,345.8979,44.2108,5.063287,0.0865078,0.50843969,271.4727,03/01.0/2025,2000,g  8.5,6.0
# From MPEC 2024-DC6
57P/duToit-Neujmin-Delporte,e,2.8528,188.7552,115.0564,3.441372,0.1543855,0.50104661,190.1409,03/01.0/2025,2000,g 12.5,6.0
# From MPEC 2024-A43
58P/Jackson-Neujmin,e,13.0898,159.0455,200.5826,4.090818,0.1191211,0.66179232,207.1433,03/01.0/2025,2000,g 15.5,6.0
# From MPEC 2023-A50
59P/Kearns-Kwee,e,9.3550,312.7307,127.6559,4.479476,0.1039593,0.47703495,244.5668,03/01.0/2025,2000,g  7.0,6.0
# From MPEC 2025-DP4
60P/Tsuchinshan,e,3.5798,267.3970,216.9309,3.530278,0.1485904,0.53387321,338.9543,03/01.0/2025,2000,g 11.5,6.0
# From MPEC 2024-JU4
61P/Shajn-Schaldach,e,5.9974,162.9628,221.7035,3.690294,0.1390313,0.42319295,119.4919,03/01.0/2025,2000,g  6.0,10.0
# From MPEC 2025-DP4
62P/Tsuchinshan,e,4.7373,68.6662,47.3240,3.370770,0.1592614,0.62470165,68.7726,03/01.0/2025,2000,g  8.0,10.0
# From MPC 84320
63P/Wild,e,19.6257,357.7972,168.8092,5.646864,0.0734502,0.65069364,323.8368,03/01.0/2025,2000,g 10.5,6.0
# From MPEC 2024-A43
64P/Swift-Gehrels,e,8.9534,299.7788,97.3298,4.452134,0.1049184,0.68853237,241.8748,03/01.0/2025,2000,g  9.5,12.0
# From MPEC 2025-D44
65P/Gunn,e,9.1756,61.9766,213.6880,3.891857,0.1283715,0.24811730,346.1949,03/01.0/2025,2000,g  5.0,6.0
# From MPEC 2021-F20
66P/duToit,e,18.6443,21.8290,257.4039,6.070595,0.0658957,0.78497449,163.6539,03/01.0/2025,2000,g 15.0,4.0
# From MPEC 2024-C04
67P/Churyumov-Gerasimenko,e,3.8691,36.3192,22.2030,3.458486,0.1532410,0.64991326,186.0814,03/01.0/2025,2000,g 11.0,4.0
# From MPEC 2023-HD1
68P/Klemola,e,11.1009,175.0873,153.2354,4.963293,0.0891352,0.63587094,173.0415,03/01.0/2025,2000,g 12.6,4.0
# From MPEC 2024-C04
69P/Taylor,e,22.0615,104.8086,343.4816,3.880854,0.1289179,0.41468635,279.9020,03/01.0/2025,2000,g  9.5,12.0
# From MPEC 2023-VM5
70P/Kojima,e,6.6027,119.2353,1.7857,3.675555,0.1398684,0.45474007,169.6673,03/01.0/2025,2000,g 11.0,6.0
# From MPEC 2024-YC7
71P/Clark,e,9.3600,59.3466,210.1108,3.167460,0.1748386,0.48986186,134.2906,03/01.0/2025,2000,g  9.8,6.0
# From MPEC 2023-VM5
72P/Denning-Fujikawa,e,10.9454,26.7150,346.7447,4.307662,0.1102406,0.81841126,68.8291,03/01.0/2025,2000,g 17.5,10.0
# From MPEC 2023-RF3
73P/Schwassmann-Wachmann,e,10.2411,68.0096,199.9315,3.032001,0.1866853,0.71662293,168.3650,03/01.0/2025,2000,g 11.5,6.0
# From NK 1613
73P-B/Schwassmann-Wachmann B,e,10.8169,195.5070,72.9342,3.073177,0.1829459,0.69619486,166.3637,03/01.0/2025,2000,g  9.0,4.0
# From NK 2710
73P-C/Schwassmann-Wachmann,e,10.8283,195.6805,72.7968,3.071955,0.1830551,0.69588657,167.2123,03/01.0/2025,2000,g  9.0,4.0
# From NK 934
73P-E/Schwassmann-Wachmann,e,10.7866,195.1863,73.2214,3.076781,0.1826246,0.69677818,164.4569,03/01.0/2025,2000,g  9.0,4.0
# From MPC 56796
73P-G/Schwassmann-Wachmann,e,11.388,69.909,198.772,3.06230,0.183922,0.6933024,359.982,06/08.0/2006,2000,g  9.0,4.0
# From MPC 56796
73P-H/Schwassmann-Wachmann,e,11.389,69.903,198.778,3.06223,0.183927,0.6933024,359.948,06/08.0/2006,2000,g  9.0,4.0
# From MPC 56796
73P-J/Schwassmann-Wachmann,e,11.386,69.983,198.673,3.06380,0.183786,0.6933024,359.974,06/08.0/2006,2000,g  9.0,4.0
# From MPC 56797
73P-K/Schwassmann-Wachmann,e,11.390,69.881,198.809,3.06176,0.183970,0.6933024,359.959,06/08.0/2006,2000,g  9.0,4.0
# From MPC 56797
73P-L/Schwassmann-Wachmann,e,11.388,69.911,198.772,3.06211,0.183938,0.6933024,359.937,06/08.0/2006,2000,g  9.0,4.0
# From MPC 56797
73P-M/Schwassmann-Wachmann,e,11.389,69.895,198.787,3.06205,0.183944,0.6933024,359.952,06/08.0/2006,2000,g  9.0,4.0
# From MPC 56797
73P-N/Schwassmann-Wachmann,e,11.389,69.909,198.754,3.06231,0.183921,0.6933024,359.952,06/08.0/2006,2000,g  9.0,4.0
# From MPC 56797
73P-P/Schwassmann-Wachmann,e,11.390,69.900,198.783,3.06222,0.183929,0.6933024,359.839,06/07.0/2006,2000,g  9.0,4.0
# From MPC 56797
73P-Q/Schwassmann-Wachmann,e,11.387,69.944,198.717,3.06298,0.183860,0.6933024,359.867,06/07.0/2006,2000,g  9.0,4.0
# From MPC 56797
73P-R/Schwassmann-Wachmann,e,11.388,69.904,198.776,3.06224,0.183927,0.6933024,359.966,06/08.0/2006,2000,g  9.0,4.0
# From MPC 56797
73P-S/Schwassmann-Wachmann,e,11.127,77.364,188.229,3.22719,0.170007,0.6933024,359.883,06/08.0/2006,2000,g  9.0,4.0
# From MPEC 2023-J29
73P-T/Schwassmann-Wachmann,e,10.2802,68.0645,199.8844,3.031574,0.1867248,0.71614127,168.6462,03/01.0/2025,2000,g  9.0,4.0
# From MPC 56797
73P-U/Schwassmann-Wachmann,e,11.384,69.994,198.659,3.06366,0.183799,0.6933024,359.997,06/09.0/2006,2000,g  9.0,4.0
# From MPC 56797
73P-V/Schwassmann-Wachmann,e,11.651,65.236,204.943,2.97417,0.192156,0.6933024,359.908,06/08.0/2006,2000,g  9.0,4.0
# From MPC 56797
73P-W/Schwassmann-Wachmann,e,11.390,69.884,198.803,3.06185,0.183962,0.6933024,359.908,06/08.0/2006,2000,g  9.0,4.0
